start=new Date('2022-12-29T00:00:00.000Z').valueOf();
sats=[{"MEAN_MOTION_DDOT":"0.0000000000000","INCLINATION":"53.2166","REV_AT_EPOCH":"6265","DECAY_DATE":null,"MEAN_ELEMENT_THEORY":"SGP4","MEAN_MOTION":"15.08859586","REF_FRAME":"TEME","FILE":"3724805","LAUNCH_DATE":"2021-11-13","SEMIMAJOR_AXIS":"6917.821","ECCENTRICITY":"0.00018280","ELEMENT_SET_NO":"999","OBJECT_ID":"2021-104AD","NORAD_CAT_ID":"49435","PERIOD":"95.436","OBJECT_TYPE":"PAYLOAD","OBJECT_NAME":"STARLINK-3117","RCS_SIZE":"LARGE","APOAPSIS":"540.950","MEAN_ANOMALY":"312.8241","CENTER_NAME":"EARTH","EPHEMERIS_TYPE":"0","COUNTRY_CODE":"US","SITE":"AFETR","GP_ID":"221663944","PERIAPSIS":"538.421","EPOCH":"2022-12-28T03:44:52.270656","TLE_LINE1":"1 49435U 21104AD  22362.15616054  .00004848  00000-0  32231-3 0  9994","TLE_LINE2":"2 49435  53.2166  50.3817 0001828  47.2904 312.8241 15.08859586 62654","TIME_SYSTEM":"UTC","MEAN_MOTION_DOT":"0.00004848","RA_OF_ASC_NODE":"50.3817","ARG_OF_PERICENTER":"47.2904","BSTAR":"0.00032231000000","CLASSIFICATION_TYPE":"U"},{"NORAD_CAT_ID":"49436","PERIOD":"95.436","OBJECT_TYPE":"PAYLOAD","OBJECT_NAME":"STARLINK-3049","RCS_SIZE":"LARGE","INCLINATION":"53.2175","MEAN_MOTION_DDOT":"0.0000000000000","MEAN_ELEMENT_THEORY":"SGP4","DECAY_DATE":null,"REV_AT_EPOCH":"6270","MEAN_MOTION":"15.08858341","FILE":"3724805","REF_FRAME":"TEME","ECCENTRICITY":"0.00017350","LAUNCH_DATE":"2021-11-13","SEMIMAJOR_AXIS":"6917.824","ELEMENT_SET_NO":"999","OBJECT_ID":"2021-104AE","TIME_SYSTEM":"UTC","TLE_LINE2":"2 49436  53.2175  48.9109 0001735   9.3987 350.7037 15.08858341 62707","MEAN_MOTION_DOT":"0.00004198","RA_OF_ASC_NODE":"48.9109","ARG_OF_PERICENTER":"9.3987","BSTAR":"0.00028154000000","CLASSIFICATION_TYPE":"U","MEAN_ANOMALY":"350.7037","APOAPSIS":"540.890","CENTER_NAME":"EARTH","SITE":"AFETR","COUNTRY_CODE":"US","EPHEMERIS_TYPE":"0","GP_ID":"221663694","PERIAPSIS":"538.489","EPOCH":"2022-12-28T11:40:24.585024","TLE_LINE1":"1 49436U 21104AE  22362.48639566  .00004198  00000-0  28154-3 0  9991"},{"RA_OF_ASC_NODE":"48.6461","ARG_OF_PERICENTER":"15.2742","BSTAR":"0.00005957400000","CLASSIFICATION_TYPE":"U","TLE_LINE2":"2 49437  53.2186  48.6461 0002980  15.2742 344.8340 15.08841942 63785","TIME_SYSTEM":"UTC","MEAN_MOTION_DOT":"0.00000660","GP_ID":"221667307","PERIAPSIS":"537.678","EPOCH":"2022-12-28T13:05:12.998976","TLE_LINE1":"1 49437U 21104AF  22362.54528934  .00000660  00000-0  59574-4 0  9996","APOAPSIS":"541.801","MEAN_ANOMALY":"344.8340","CENTER_NAME":"EARTH","EPHEMERIS_TYPE":"0","SITE":"AFETR","COUNTRY_CODE":"US","OBJECT_TYPE":"PAYLOAD","OBJECT_NAME":"STARLINK-3130","RCS_SIZE":"LARGE","NORAD_CAT_ID":"49437","PERIOD":"95.437","REF_FRAME":"TEME","FILE":"3724812","SEMIMAJOR_AXIS":"6917.874","LAUNCH_DATE":"2021-11-13","ECCENTRICITY":"0.00029800","ELEMENT_SET_NO":"999","OBJECT_ID":"2021-104AF","INCLINATION":"53.2186","MEAN_MOTION_DDOT":"0.0000000000000","REV_AT_EPOCH":"6378","DECAY_DATE":null,"MEAN_ELEMENT_THEORY":"SGP4","MEAN_MOTION":"15.08841942"},{"GP_ID":"221664689","EPOCH":"2022-12-28T03:27:35.335008","PERIAPSIS":"537.722","TLE_LINE1":"1 49438U 21104AG  22362.14415897  .00005192  00000-0  34393-3 0  9992","MEAN_ANOMALY":"336.2613","APOAPSIS":"541.661","CENTER_NAME":"EARTH","COUNTRY_CODE":"US","SITE":"AFETR","EPHEMERIS_TYPE":"0","RA_OF_ASC_NODE":"50.4482","ARG_OF_PERICENTER":"23.8511","BSTAR":"0.00034393000000","CLASSIFICATION_TYPE":"U","TIME_SYSTEM":"UTC","TLE_LINE2":"2 49438  53.2170  50.4482 0002847  23.8511 336.2613 15.08857736 62655","MEAN_MOTION_DOT":"0.00005192","FILE":"3724805","REF_FRAME":"TEME","ECCENTRICITY":"0.00028470","SEMIMAJOR_AXIS":"6917.826","LAUNCH_DATE":"2021-11-13","ELEMENT_SET_NO":"999","OBJECT_ID":"2021-104AG","INCLINATION":"53.2170","MEAN_MOTION_DDOT":"0.0000000000000","MEAN_ELEMENT_THEORY":"SGP4","DECAY_DATE":null,"REV_AT_EPOCH":"6265","MEAN_MOTION":"15.08857736","OBJECT_TYPE":"PAYLOAD","OBJECT_NAME":"STARLINK-3044","RCS_SIZE":"LARGE","NORAD_CAT_ID":"49438","PERIOD":"95.436"},{"INCLINATION":"53.2175","MEAN_MOTION_DDOT":"0.0000000000000","REV_AT_EPOCH":"6266","DECAY_DATE":null,"MEAN_ELEMENT_THEORY":"SGP4","MEAN_MOTION":"15.08850532","REF_FRAME":"TEME","FILE":"3724805","LAUNCH_DATE":"2021-11-13","SEMIMAJOR_AXIS":"6917.848","ECCENTRICITY":"0.00029980","ELEMENT_SET_NO":"999","OBJECT_ID":"2021-104AH","NORAD_CAT_ID":"49439","PERIOD":"95.437","OBJECT_TYPE":"PAYLOAD","OBJECT_NAME":"STARLINK-3108","RCS_SIZE":"LARGE","APOAPSIS":"541.787","MEAN_ANOMALY":"337.2690","CENTER_NAME":"EARTH","EPHEMERIS_TYPE":"0","COUNTRY_CODE":"US","SITE":"AFETR","GP_ID":"221663444","PERIAPSIS":"537.639","EPOCH":"2022-12-28T04:36:28.810368","TLE_LINE1":"1 49439U 21104AH  22362.19200012  .00003825  00000-0  25823-3 0  9998","TLE_LINE2":"2 49439  53.2175  50.2275 0002998  22.8435 337.2690 15.08850532 62664","TIME_SYSTEM":"UTC","MEAN_MOTION_DOT":"0.00003825","RA_OF_ASC_NODE":"50.2275","ARG_OF_PERICENTER":"22.8435","BSTAR":"0.00025823000000","CLASSIFICATION_TYPE":"U"},{"OBJECT_NAME":"STARLINK-3105","OBJECT_TYPE":"PAYLOAD","RCS_SIZE":"LARGE","NORAD_CAT_ID":"49440","PERIOD":"95.436","LAUNCH_DATE":"2021-11-13","SEMIMAJOR_AXIS":"6917.822","ECCENTRICITY":"0.00020480","REF_FRAME":"TEME","FILE":"3724817","OBJECT_ID":"2021-104AJ","ELEMENT_SET_NO":"999","INCLINATION":"53.2157","MEAN_MOTION_DDOT":"0.0000000000000","MEAN_MOTION":"15.08859013","REV_AT_EPOCH":"6378","DECAY_DATE":null,"MEAN_ELEMENT_THEORY":"SGP4","RA_OF_ASC_NODE":"48.6792","CLASSIFICATION_TYPE":"U","BSTAR":"0.00018800000000","ARG_OF_PERICENTER":"352.2373","TLE_LINE2":"2 49440  53.2157  48.6792 0002048 352.2373   7.8587 15.08859013 63780","TIME_SYSTEM":"UTC","MEAN_MOTION_DOT":"0.00002707","GP_ID":"221667363","TLE_LINE1":"1 49440U 21104AJ  22362.53791264  .00002707  00000-0  18800-3 0  9997","EPOCH":"2022-12-28T12:54:35.652096","PERIAPSIS":"538.271","APOAPSIS":"541.104","MEAN_ANOMALY":"7.8587","EPHEMERIS_TYPE":"0","SITE":"AFETR","COUNTRY_CODE":"US","CENTER_NAME":"EARTH"},{"ELEMENT_SET_NO":"999","OBJECT_ID":"2021-104AK","REF_FRAME":"TEME","FILE":"3724818","SEMIMAJOR_AXIS":"6917.861","LAUNCH_DATE":"2021-11-13","ECCENTRICITY":"0.00028530","REV_AT_EPOCH":"6379","DECAY_DATE":null,"MEAN_ELEMENT_THEORY":"SGP4","MEAN_MOTION":"15.08846392","MEAN_MOTION_DDOT":"0.0000000000000","INCLINATION":"53.2160","RCS_SIZE":"LARGE","OBJECT_TYPE":"PAYLOAD","OBJECT_NAME":"STARLINK-3128","PERIOD":"95.437","NORAD_CAT_ID":"49441","EPOCH":"2022-12-28T12:28:07.152672","PERIAPSIS":"537.752","TLE_LINE1":"1 49441U 21104AK  22362.51952723  .00002861  00000-0  19774-3 0  9997","GP_ID":"221667530","CENTER_NAME":"EARTH","EPHEMERIS_TYPE":"0","SITE":"AFETR","COUNTRY_CODE":"US","APOAPSIS":"541.700","MEAN_ANOMALY":"329.1942","ARG_OF_PERICENTER":"30.9218","CLASSIFICATION_TYPE":"U","BSTAR":"0.00019774000000","RA_OF_ASC_NODE":"48.7559","MEAN_MOTION_DOT":"0.00002861","TLE_LINE2":"2 49441  53.2160  48.7559 0002853  30.9218 329.1942 15.08846392 63791","TIME_SYSTEM":"UTC"},{"RA_OF_ASC_NODE":"48.6948","CLASSIFICATION_TYPE":"U","BSTAR":"0.00007937100000","ARG_OF_PERICENTER":"25.1090","TLE_LINE2":"2 49442  53.2190  48.6948 0002827  25.1090 335.0040 15.08842514 63798","TIME_SYSTEM":"UTC","MEAN_MOTION_DOT":"0.00000975","GP_ID":"221667397","TLE_LINE1":"1 49442U 21104AL  22362.53424380  .00000975  00000-0  79371-4 0  9997","EPOCH":"2022-12-28T12:49:18.664320","PERIAPSIS":"537.782","APOAPSIS":"541.693","MEAN_ANOMALY":"335.0040","EPHEMERIS_TYPE":"0","SITE":"AFETR","COUNTRY_CODE":"US","CENTER_NAME":"EARTH","OBJECT_NAME":"STARLINK-3098","OBJECT_TYPE":"PAYLOAD","RCS_SIZE":"LARGE","NORAD_CAT_ID":"49442","PERIOD":"95.437","SEMIMAJOR_AXIS":"6917.873","LAUNCH_DATE":"2021-11-13","ECCENTRICITY":"0.00028270","REF_FRAME":"TEME","FILE":"3724819","OBJECT_ID":"2021-104AL","ELEMENT_SET_NO":"999","MEAN_MOTION_DDOT":"0.0000000000000","INCLINATION":"53.2190","MEAN_MOTION":"15.08842514","REV_AT_EPOCH":"6379","DECAY_DATE":null,"MEAN_ELEMENT_THEORY":"SGP4"},{"CENTER_NAME":"EARTH","SITE":"AFETR","COUNTRY_CODE":"US","EPHEMERIS_TYPE":"0","MEAN_ANOMALY":"338.8601","APOAPSIS":"541.903","EPOCH":"2022-12-28T12:22:48.824832","PERIAPSIS":"537.560","TLE_LINE1":"1 49443U 21104AM  22362.51584288  .00002624  00000-0  18293-3 0  9998","GP_ID":"221667543","MEAN_MOTION_DOT":"0.00002624","TIME_SYSTEM":"UTC","TLE_LINE2":"2 49443  53.2170  48.7670 0003139  21.2521 338.8601 15.08844514 63788","ARG_OF_PERICENTER":"21.2521","BSTAR":"0.00018293000000","CLASSIFICATION_TYPE":"U","RA_OF_ASC_NODE":"48.7670","MEAN_ELEMENT_THEORY":"SGP4","DECAY_DATE":null,"REV_AT_EPOCH":"6378","MEAN_MOTION":"15.08844514","MEAN_MOTION_DDOT":"0.0000000000000","INCLINATION":"53.2170","ELEMENT_SET_NO":"999","OBJECT_ID":"2021-104AM","FILE":"3724819","REF_FRAME":"TEME","ECCENTRICITY":"0.00031390","LAUNCH_DATE":"2021-11-13","SEMIMAJOR_AXIS":"6917.867","PERIOD":"95.437","NORAD_CAT_ID":"49443","RCS_SIZE":"LARGE","OBJECT_TYPE":"PAYLOAD","OBJECT_NAME":"STARLINK-3136"},{"CLASSIFICATION_TYPE":"U","BSTAR":"0.00026482000000","ARG_OF_PERICENTER":"34.5167","RA_OF_ASC_NODE":"50.4914","MEAN_MOTION_DOT":"0.00003931","TLE_LINE2":"2 49444  53.2174  50.4914 0002493  34.5167 325.5986 15.08858635 62652","TIME_SYSTEM":"UTC","TLE_LINE1":"1 49444U 21104AN  22362.13311648  .00003931  00000-0  26482-3 0  9996","PERIAPSIS":"537.964","EPOCH":"2022-12-28T03:11:41.263872","GP_ID":"221663695","EPHEMERIS_TYPE":"0","COUNTRY_CODE":"US","SITE":"AFETR","CENTER_NAME":"EARTH","APOAPSIS":"541.413","MEAN_ANOMALY":"325.5986","RCS_SIZE":"LARGE","OBJECT_NAME":"STARLINK-3126","OBJECT_TYPE":"PAYLOAD","PERIOD":"95.436","NORAD_CAT_ID":"49444","OBJECT_ID":"2021-104AN","ELEMENT_SET_NO":"999","SEMIMAJOR_AXIS":"6917.823","LAUNCH_DATE":"2021-11-13","ECCENTRICITY":"0.00024930","REF_FRAME":"TEME","FILE":"3724805","MEAN_MOTION":"15.08858635","REV_AT_EPOCH":"6265","MEAN_ELEMENT_THEORY":"SGP4","DECAY_DATE":null,"INCLINATION":"53.2174","MEAN_MOTION_DDOT":"0.0000000000000"}];
